{"type": "FeatureCollection", "features": [ {"type": "Feature", "properties": {"norad_id": 38953, "name": "BEIDOU-2 G6 (C02)", "group": "beidou", "lat": 0.4772664557240871, "lon": -111.73311541308222, "alt_km": 35800.962328370115, "timestamp": "2025-12-08T05:48:09.299729+00:00", "meta": {"OBJECT_NAME": "BEIDOU-2 G6 (C02)", "OBJECT_ID": "2012-059A", "EPOCH": "2025-12-07T20:53:01.861152", "MEAN_MOTION": 1.00270169, "ECCENTRICITY": 0.00076498, "INCLINATION": 3.9366, "RA_OF_ASC_NODE": 75.5513, "ARG_OF_PERICENTER": 289.3533, "MEAN_ANOMALY": 109.2777, "EPHEMERIS_TYPE": 0, "CLASSIFICATION_TYPE": "U", "NORAD_CAT_ID": 38953, "ELEMENT_SET_NO": 999, "REV_AT_EPOCH": 4799, "BSTAR": 0, "MEAN_MOTION_DOT": -1.74e-06, "MEAN_MOTION_DDOT": 0}, "tle": {"line1": "1 38953U 12059A   25341.87016043 -.00000174  00000+0  00000+0 0  9990", "line2": "2 38953   3.9366  75.5513 0007649 289.3533 109.2777  1.00270169 47990"}}, "geometry": {"type": "Point", "coordinates": [-111.73311541308222, 0.4772664557240871]}}, {"type": "Feature", "properties": {"norad_id": 40748, "name": "BEIDOU-3S M2S (C58)", "group": "beidou", "lat": 38.19139680486942, "lon": -18.039165893120717, "alt_km": 21550.23769212586, "timestamp": "2025-12-08T05:48:09.299740+00:00", "meta": {"OBJECT_NAME": "BEIDOU-3S M2S (C58)", "OBJECT_ID": "2015-037A", "EPOCH": "2025-12-07T02:16:25.877280", "MEAN_MOTION": 1.86229046, "ECCENTRICITY": 0.00123234, "INCLINATION": 55.0438, "RA_OF_ASC_NODE": 308.6574, "ARG_OF_PERICENTER": 268.1088, "MEAN_ANOMALY": 91.7345, "EPHEMERIS_TYPE": 0, "CLASSIFICATION_TYPE": "U", "NORAD_CAT_ID": 40748, "ELEMENT_SET_NO": 999, "REV_AT_EPOCH": 7054, "BSTAR": 0, "MEAN_MOTION_DOT": -7e-07, "MEAN_MOTION_DDOT": 0}, "tle": {"line1": "1 40748U 15037A   25341.09474395 -.00000070  00000+0  00000+0 0  9991", "line2": "2 40748  55.0438 308.6574 0012323 268.1088  91.7345  1.86229046 70540"}}, "geometry": {"type": "Point", "coordinates": [-18.039165893120717, 38.19139680486942]}}, {"type": "Feature", "properties": {"norad_id": 40749, "name": "BEIDOU-3S M1S (C57)", "group": "beidou", "lat": -52.081484066946885, "lon": -167.57976679291656, "alt_km": 21533.347611219604, "timestamp": "2025-12-08T05:48:09.299751+00:00", "meta": {"OBJECT_NAME": "BEIDOU-3S M1S (C57)", "OBJECT_ID": "2015-037B", "EPOCH": "2025-12-01T22:57:46.412352", "MEAN_MOTION": 1.86253762, "ECCENTRICITY": 0.0003321, "INCLINATION": 55.0451, "RA_OF_ASC_NODE": 308.8236, "ARG_OF_PERICENTER": 355.9906, "MEAN_ANOMALY": 3.9975, "EPHEMERIS_TYPE": 0, "CLASSIFICATION_TYPE": "U", "NORAD_CAT_ID": 40749, "ELEMENT_SET_NO": 999, "REV_AT_EPOCH": 7045, "BSTAR": 0, "MEAN_MOTION_DOT": -6e-07, "MEAN_MOTION_DDOT": 0}, "tle": {"line1": "1 40749U 15037B   25335.95678718 -.00000060  00000+0  00000+0 0  9994", "line2": "2 40749  55.0451 308.8236 0003321 355.9906   3.9975  1.86253762 70451"}}, "geometry": {"type": "Point", "coordinates": [-167.57976679291656, -52.081484066946885]}}, {"type": "Feature", "properties": {"norad_id": 40938, "name": "BEIDOU-3S IGSO-2S (C56)", "group": "beidou", "lat": -0.4814430186760826, "lon": -99.3620990826928, "alt_km": 36041.399375016474, "timestamp": "2025-12-08T05:48:09.299762+00:00", "meta": {"OBJECT_NAME": "BEIDOU-3S IGSO-2S (C56)", "OBJECT_ID": "2015-053A", "EPOCH": "2025-12-07T17:59:38.817312", "MEAN_MOTION": 1.00270783, "ECCENTRICITY": 0.0060962, "INCLINATION": 49.5194, "RA_OF_ASC_NODE": 261.0646, "ARG_OF_PERICENTER": 188.6217, "MEAN_ANOMALY": 353.0712, "EPHEMERIS_TYPE": 0, "CLASSIFICATION_TYPE": "U", "NORAD_CAT_ID": 40938, "ELEMENT_SET_NO": 999, "REV_AT_EPOCH": 3743, "BSTAR": 0, "MEAN_MOTION_DOT": -1.42e-06, "MEAN_MOTION_DDOT": 0}, "tle": {"line1": "1 40938U 15053A   25341.74975483 -.00000142  00000+0  00000+0 0  9996", "line2": "2 40938  49.5194 261.0646 0060962 188.6217 353.0712  1.00270783 37435"}}, "geometry": {"type": "Point", "coordinates": [-99.3620990826928, -0.4814430186760826]}}, {"type": "Feature", "properties": {"norad_id": 41434, "name": "BEIDOU-2 IGSO-6 (C13)", "group": "beidou", "lat": -30.29936657017287, "lon": -120.27909839028266, "alt_km": 35553.838263741025, "timestamp": "2025-12-08T05:48:09.299774+00:00", "meta": {"OBJECT_NAME": "BEIDOU-2 IGSO-6 (C13)", "OBJECT_ID": "2016-021A", "EPOCH": "2025-12-01T15:57:35.287200", "MEAN_MOTION": 1.00256562, "ECCENTRICITY": 0.00591323, "INCLINATION": 59.9483, "RA_OF_ASC_NODE": 40.0119, "ARG_OF_PERICENTER": 231.2834, "MEAN_ANOMALY": 130.8807, "EPHEMERIS_TYPE": 0, "CLASSIFICATION_TYPE": "U", "NORAD_CAT_ID": 41434, "ELEMENT_SET_NO": 999, "REV_AT_EPOCH": 3550, "BSTAR": 0, "MEAN_MOTION_DOT": -1.55e-06, "MEAN_MOTION_DDOT": 0}, "tle": {"line1": "1 41434U 16021A   25335.66499175 -.00000155  00000+0  00000+0 0  9991", "line2": "2 41434  59.9483  40.0119 0059132 231.2834 130.8807  1.00256562 35501"}}, "geometry": {"type": "Point", "coordinates": [-120.27909839028266, -30.29936657017287]}}, {"type": "Feature", "properties": {"norad_id": 41586, "name": "BEIDOU-2 G7 (C03)", "group": "beidou", "lat": -0.8135930564261586, "lon": -85.27036132683602, "alt_km": 35803.67171017987, "timestamp": "2025-12-08T05:48:09.299787+00:00", "meta": {"OBJECT_NAME": "BEIDOU-2 G7 (C03)", "OBJECT_ID": "2016-037A", "EPOCH": "2025-12-07T22:43:12.465984", "MEAN_MOTION": 1.00269482, "ECCENTRICITY": 0.00044255, "INCLINATION": 1.7451, "RA_OF_ASC_NODE": 67.7531, "ARG_OF_PERICENTER": 0.5194, "MEAN_ANOMALY": 99.9683, "EPHEMERIS_TYPE": 0, "CLASSIFICATION_TYPE": "U", "NORAD_CAT_ID": 41586, "ELEMENT_SET_NO": 999, "REV_AT_EPOCH": 497, "BSTAR": 0, "MEAN_MOTION_DOT": -3.51e-06, "MEAN_MOTION_DDOT": 0}, "tle": {"line1": "1 41586U 16037A   25341.94667206 -.00000351  00000+0  00000+0 0  9994", "line2": "2 41586   1.7451  67.7531 0004425   0.5194  99.9683  1.00269482  4973"}}, "geometry": {"type": "Point", "coordinates": [-85.27036132683602, -0.8135930564261586]}}, {"type": "Feature", "properties": {"norad_id": 43001, "name": "BEIDOU-3 M1 (C19)", "group": "beidou", "lat": 2.1666287146120657, "lon": -112.040413216766, "alt_km": 21543.044287221208, "timestamp": "2025-12-08T05:48:09.299798+00:00", "meta": {"OBJECT_NAME": "BEIDOU-3 M1 (C19)", "OBJECT_ID": "2017-069A", "EPOCH": "2025-12-07T10:33:38.997216", "MEAN_MOTION": 1.86230818, "ECCENTRICITY": 0.00090499, "INCLINATION": 56.5227, "RA_OF_ASC_NODE": 69.4088, "ARG_OF_PERICENTER": 303.7178, "MEAN_ANOMALY": 56.2144, "EPHEMERIS_TYPE": 0, "CLASSIFICATION_TYPE": "U", "NORAD_CAT_ID": 43001, "ELEMENT_SET_NO": 999, "REV_AT_EPOCH": 5503, "BSTAR": 0, "MEAN_MOTION_DOT": -4.4e-07, "MEAN_MOTION_DDOT": 0}, "tle": {"line1": "1 43001U 17069A   25341.44003469 -.00000044  00000+0  00000+0 0  9993", "line2": "2 43001  56.5227  69.4088 0009049 303.7178  56.2144  1.86230818 55035"}}, "geometry": {"type": "Point", "coordinates": [-112.040413216766, 2.1666287146120657]}}, {"type": "Feature", "properties": {"norad_id": 43002, "name": "BEIDOU-3 M2 (C20)", "group": "beidou", "lat": -31.51595055172378, "lon": -86.66993847125083, "alt_km": 21538.85526671022, "timestamp": "2025-12-08T05:48:09.299809+00:00", "meta": {"OBJECT_NAME": "BEIDOU-3 M2 (C20)", "OBJECT_ID": "2017-069B", "EPOCH": "2025-12-07T09:04:52.679136", "MEAN_MOTION": 1.86230635, "ECCENTRICITY": 0.00063308, "INCLINATION": 56.5218, "RA_OF_ASC_NODE": 69.4472, "ARG_OF_PERICENTER": 331.2047, "MEAN_ANOMALY": 28.7785, "EPHEMERIS_TYPE": 0, "CLASSIFICATION_TYPE": "U", "NORAD_CAT_ID": 43002, "ELEMENT_SET_NO": 999, "REV_AT_EPOCH": 5502, "BSTAR": 0, "MEAN_MOTION_DOT": -4.4e-07, "MEAN_MOTION_DDOT": 0}, "tle": {"line1": "1 43002U 17069B   25341.37838749 -.00000044  00000+0  00000+0 0  9993", "line2": "2 43002  56.5218  69.4472 0006330 331.2047  28.7785  1.86230635 55025"}}, "geometry": {"type": "Point", "coordinates": [-86.66993847125083, -31.51595055172378]}}, {"type": "Feature", "properties": {"norad_id": 43107, "name": "BEIDOU-3 M7 (C27)", "group": "beidou", "lat": 24.879248876328212, "lon": -31.733847201100506, "alt_km": 21518.991706339006, "timestamp": "2025-12-08T05:48:09.299820+00:00", "meta": {"OBJECT_NAME": "BEIDOU-3 M7 (C27)", "OBJECT_ID": "2018-003A", "EPOCH": "2025-12-07T02:54:56.285856", "MEAN_MOTION": 1.86232289, "ECCENTRICITY": 0.00027014, "INCLINATION": 54.5017, "RA_OF_ASC_NODE": 309.0103, "ARG_OF_PERICENTER": 69.3468, "MEAN_ANOMALY": 290.667, "EPHEMERIS_TYPE": 0, "CLASSIFICATION_TYPE": "U", "NORAD_CAT_ID": 43107, "ELEMENT_SET_NO": 999, "REV_AT_EPOCH": 5377, "BSTAR": 0, "MEAN_MOTION_DOT": -7.2e-07, "MEAN_MOTION_DDOT": 0}, "tle": {"line1": "1 43107U 18003A   25341.12148479 -.00000072  00000+0  00000+0 0  9996", "line2": "2 43107  54.5017 309.0103 0002701  69.3468 290.6670  1.86232289 53774"}}, "geometry": {"type": "Point", "coordinates": [-31.733847201100506, 24.879248876328212]}}, {"type": "Feature", "properties": {"norad_id": 43108, "name": "BEIDOU-3 M8 (C28)", "group": "beidou", "lat": 49.03051540815975, "lon": 4.179410332738074, "alt_km": 21533.99234006336, "timestamp": "2025-12-08T05:48:09.299831+00:00", "meta": {"OBJECT_NAME": "BEIDOU-3 M8 (C28)", "OBJECT_ID": "2018-003B", "EPOCH": "2025-12-07T14:28:44.838336", "MEAN_MOTION": 1.86230783, "ECCENTRICITY": 0.00047344, "INCLINATION": 54.4942, "RA_OF_ASC_NODE": 308.9763, "ARG_OF_PERICENTER": 275.286, "MEAN_ANOMALY": 84.6457, "EPHEMERIS_TYPE": 0, "CLASSIFICATION_TYPE": "U", "NORAD_CAT_ID": 43108, "ELEMENT_SET_NO": 999, "REV_AT_EPOCH": 5379, "BSTAR": 0, "MEAN_MOTION_DOT": -7.2e-07, "MEAN_MOTION_DDOT": 0}, "tle": {"line1": "1 43108U 18003B   25341.60329674 -.00000072  00000+0  00000+0 0  9998", "line2": "2 43108  54.4942 308.9763 0004734 275.2860  84.6457  1.86230783 53796"}}, "geometry": {"type": "Point", "coordinates": [4.179410332738074, 49.03051540815975]}}]}